{
  "type": "FeatureCollection",
  "features": [
    {
      "type": "Feature",
      "properties": {
        "norad_id": 24876,
        "name": "GPS BIIR-2  (PRN 13)",
        "group": "gnss",
        "lat": -44.00025521686176,
        "lon": 64.57010258795742,
        "alt_km": 20289.222024547144,
        "timestamp": "2025-12-25T14:48:25.022159+00:00",
        "meta_object_name": "GPS BIIR-2  (PRN 13)",
        "meta_object_id": "1997-035A",
        "meta_epoch": "2025-12-25T04:43:59.117664",
        "meta_mean_motion": 2.00563692,
        "meta_eccentricity": 0.00968489,
        "meta_inclination": 55.901,
        "meta_ra_of_asc_node": 105.3817,
        "meta_arg_of_pericenter": 56.9385,
        "meta_mean_anomaly": 303.9881,
        "meta_ephemeris_type": 0,
        "meta_classification_type": "U",
        "meta_norad_cat_id": 24876,
        "meta_element_set_no": 999,
        "meta_rev_at_epoch": 20846,
        "meta_bstar": 0,
        "meta_mean_motion_dot": 2.8e-07,
        "meta_mean_motion_ddot": 0,
        "tle_line1": "1 24876U 97035A   25359.19721201  .00000028  00000+0  00000+0 0  9996",
        "tle_line2": "2 24876  55.9010 105.3817 0096848  56.9385 303.9881  2.00563692208460"
      },
      "geometry": {
        "type": "Point",
        "coordinates": [
          64.57010258795742,
          -44.00025521686176
        ]
      }
    },
    {
      "type": "Feature",
      "properties": {
        "norad_id": 26360,
        "name": "GPS BIIR-4  (PRN 20)",
        "group": "gnss",
        "lat": 28.98666250779996,
        "lon": 49.11560579838218,
        "alt_km": 20270.573863577225,
        "timestamp": "2025-12-25T14:48:25.022205+00:00",
        "meta_object_name": "GPS BIIR-4  (PRN 20)",
        "meta_object_id": "2000-025A",
        "meta_epoch": "2025-12-25T02:59:32.925696",
        "meta_mean_motion": 2.00566595,
        "meta_eccentricity": 0.00388927,
        "meta_inclination": 55.0525,
        "meta_ra_of_asc_node": 26.337,
        "meta_arg_of_pericenter": 243.1637,
        "meta_mean_anomaly": 157.4834,
        "meta_ephemeris_type": 0,
        "meta_classification_type": "U",
        "meta_norad_cat_id": 26360,
        "meta_element_set_no": 999,
        "meta_rev_at_epoch": 18778,
        "meta_bstar": 0,
        "meta_mean_motion_dot": -5.6e-07,
        "meta_mean_motion_ddot": 0,
        "tle_line1": "1 26360U 00025A   25359.12468664 -.00000056  00000+0  00000+0 0  9995",
        "tle_line2": "2 26360  55.0525  26.3370 0038892 243.1637 157.4834  2.00566595187789"
      },
      "geometry": {
        "type": "Point",
        "coordinates": [
          49.11560579838218,
          28.98666250779996
        ]
      }
    },
    {
      "type": "Feature",
      "properties": {
        "norad_id": 26407,
        "name": "GPS BIIR-5  (PRN 22)",
        "group": "gnss",
        "lat": -41.708800301137416,
        "lon": 80.89370489232645,
        "alt_km": 20056.506151919933,
        "timestamp": "2025-12-25T14:48:25.022222+00:00",
        "meta_object_name": "GPS BIIR-5  (PRN 22)",
        "meta_object_id": "2000-040A",
        "meta_epoch": "2025-12-25T00:58:38.180352",
        "meta_mean_motion": 2.00568081,
        "meta_eccentricity": 0.01253464,
        "meta_inclination": 54.8881,
        "meta_ra_of_asc_node": 222.0798,
        "meta_arg_of_pericenter": 302.0038,
        "meta_mean_anomaly": 237.7094,
        "meta_ephemeris_type": 0,
        "meta_classification_type": "U",
        "meta_norad_cat_id": 26407,
        "meta_element_set_no": 999,
        "meta_rev_at_epoch": 18645,
        "meta_bstar": 0,
        "meta_mean_motion_dot": 6.7e-07,
        "meta_mean_motion_ddot": 0,
        "tle_line1": "1 26407U 00040A   25359.04071968  .00000067  00000+0  00000+0 0  9993",
        "tle_line2": "2 26407  54.8881 222.0798 0125346 302.0038 237.7094  2.00568081186458"
      },
      "geometry": {
        "type": "Point",
        "coordinates": [
          80.89370489232645,
          -41.708800301137416
        ]
      }
    },
    {
      "type": "Feature",
      "properties": {
        "norad_id": 27663,
        "name": "GPS BIIR-8  (PRN 16)",
        "group": "gnss",
        "lat": 8.659289900446101,
        "lon": -131.97927480467425,
        "alt_km": 19883.17014093157,
        "timestamp": "2025-12-25T14:48:25.022235+00:00",
        "meta_object_name": "GPS BIIR-8  (PRN 16)",
        "meta_object_id": "2003-005A",
        "meta_epoch": "2025-12-24T14:50:30.961824",
        "meta_mean_motion": 2.00570207,
        "meta_eccentricity": 0.01478624,
        "meta_inclination": 54.9207,
        "meta_ra_of_asc_node": 221.9058,
        "meta_arg_of_pericenter": 51.9747,
        "meta_mean_anomaly": 318.7946,
        "meta_ephemeris_type": 0,
        "meta_classification_type": "U",
        "meta_norad_cat_id": 27663,
        "meta_element_set_no": 999,
        "meta_rev_at_epoch": 16781,
        "meta_bstar": 0,
        "meta_mean_motion_dot": 6.6e-07,
        "meta_mean_motion_ddot": 0,
        "tle_line1": "1 27663U 03005A   25358.61841391  .00000066  00000+0  00000+0 0  9998",
        "tle_line2": "2 27663  54.9207 221.9058 0147862  51.9747 318.7946  2.00570207167815"
      },
      "geometry": {
        "type": "Point",
        "coordinates": [
          -131.97927480467425,
          8.659289900446101
        ]
      }
    },
    {
      "type": "Feature",
      "properties": {
        "norad_id": 28190,
        "name": "GPS BIIR-11 (PRN 19)",
        "group": "gnss",
        "lat": 8.094919401907546,
        "lon": 96.9759042030388,
        "alt_km": 19893.148966824756,
        "timestamp": "2025-12-25T14:48:25.022248+00:00",
        "meta_object_name": "GPS BIIR-11 (PRN 19)",
        "meta_object_id": "2004-009A",
        "meta_epoch": "2025-12-25T00:56:53.599200",
        "meta_mean_motion": 2.00560295,
        "meta_eccentricity": 0.01085715,
        "meta_inclination": 54.9745,
        "meta_ra_of_asc_node": 282.7233,
        "meta_arg_of_pericenter": 167.849,
        "meta_mean_anomaly": 305.251,
        "meta_ephemeris_type": 0,
        "meta_classification_type": "U",
        "meta_norad_cat_id": 28190,
        "meta_element_set_no": 999,
        "meta_rev_at_epoch": 15945,
        "meta_bstar": 0,
        "meta_mean_motion_dot": -2.6e-07,
        "meta_mean_motion_ddot": 0,
        "tle_line1": "1 28190U 04009A   25359.03950925 -.00000026  00000+0  00000+0 0  9997",
        "tle_line2": "2 28190  54.9745 282.7233 0108571 167.8490 305.2510  2.00560295159459"
      },
      "geometry": {
        "type": "Point",
        "coordinates": [
          96.9759042030388,
          8.094919401907546
        ]
      }
    },
    {
      "type": "Feature",
      "properties": {
        "norad_id": 28474,
        "name": "GPS BIIR-13 (PRN 02)",
        "group": "gnss",
        "lat": -38.06659910661132,
        "lon": -175.1904834791864,
        "alt_km": 20108.673390413664,
        "timestamp": "2025-12-25T14:48:25.022262+00:00",
        "meta_object_name": "GPS BIIR-13 (PRN 02)",
        "meta_object_id": "2004-045A",
        "meta_epoch": "2025-12-25T06:51:33.527808",
        "meta_mean_motion": 2.00570039,
        "meta_eccentricity": 0.01709889,
        "meta_inclination": 55.2344,
        "meta_ra_of_asc_node": 331.9013,
        "meta_arg_of_pericenter": 309.8108,
        "meta_mean_anomaly": 41.6127,
        "meta_ephemeris_type": 0,
        "meta_classification_type": "U",
        "meta_norad_cat_id": 28474,
        "meta_element_set_no": 999,
        "meta_rev_at_epoch": 15493,
        "meta_bstar": 0,
        "meta_mean_motion_dot": -5.9e-07,
        "meta_mean_motion_ddot": 0,
        "tle_line1": "1 28474U 04045A   25359.28580472 -.00000059  00000+0  00000+0 0  9991",
        "tle_line2": "2 28474  55.2344 331.9013 0170988 309.8108  41.6127  2.00570039154931"
      },
      "geometry": {
        "type": "Point",
        "coordinates": [
          -175.1904834791864,
          -38.06659910661132
        ]
      }
    },
    {
      "type": "Feature",
      "properties": {
        "norad_id": 28874,
        "name": "GPS BIIRM-1 (PRN 17)",
        "group": "gnss",
        "lat": -6.875462729599538,
        "lon": 105.01309826652901,
        "alt_km": 20271.483395561972,
        "timestamp": "2025-12-25T14:48:25.022274+00:00",
        "meta_object_name": "GPS BIIRM-1 (PRN 17)",
        "meta_object_id": "2005-038A",
        "meta_epoch": "2025-12-24T20:45:31.120992",
        "meta_mean_motion": 2.00577585,
        "meta_eccentricity": 0.0131256,
        "meta_inclination": 55.0211,
        "meta_ra_of_asc_node": 280.2128,
        "meta_arg_of_pericenter": 293.8377,
        "meta_mean_anomaly": 72.9738,
        "meta_ephemeris_type": 0,
        "meta_classification_type": "U",
        "meta_norad_cat_id": 28874,
        "meta_element_set_no": 999,
        "meta_rev_at_epoch": 14834,
        "meta_bstar": 0,
        "meta_mean_motion_dot": -2.3e-07,
        "meta_mean_motion_ddot": 0,
        "tle_line1": "1 28874U 05038A   25358.86494353 -.00000023  00000+0  00000+0 0  9994",
        "tle_line2": "2 28874  55.0211 280.2128 0131256 293.8377  72.9738  2.00577585148340"
      },
      "geometry": {
        "type": "Point",
        "coordinates": [
          105.01309826652901,
          -6.875462729599538
        ]
      }
    }
  ]
}